IRIDIUM 155             
1 43573U 18061E   21125.43109312  .00000082  00000-0  22080-4 0  9998
2 43573  86.3927 117.7148 0002206  75.9974 284.1467 14.34216846145505
IRIDIUM 154             
1 43574U 18061F   21125.69114172  .00000084  00000-0  22882-4 0  9999
2 43574  86.3930 117.6505 0002503  92.5387 267.6095 14.34216507145595
IRIDIUM 163             
1 43575U 18061G   21125.67210891  .00000083  00000-0  22574-4 0  9990
2 43575  86.3928 117.6307 0001942 100.6154 259.5261 14.34216489145563
IRIDIUM 156             
1 43576U 18061H   21125.43744356  .00000082  00000-0  22249-4 0  9991
2 43576  86.3928 117.7339 0001925  86.8607 273.2809 14.34217838145525
IRIDIUM 164             
1 43577U 18061J   21125.69748577  .00000080  00000-0  21550-4 0  9991
2 43577  86.3929 117.6371 0002359  94.1859 265.9606 14.34217808145604
IRIDIUM 159             
1 43578U 18061K   21125.73554105  .00000081  00000-0  21810-4 0  9999
2 43578  86.3927 117.5971 0002396  91.8180 268.3290 14.34218517145570
IRIDIUM 180             
1 43922U 19002A   21125.31641992  .00000091  00000-0  25586-4 0  9998
2 43922  86.3997  54.5947 0002719 105.9615 254.1881 14.34219801121123
IRIDIUM 176             
1 43923U 19002B   21125.31888962  .00000182  00000-0  25002-4 0  9993
2 43923  86.6131  54.6254 0002523  87.7280 272.4225 14.72247639124284
IRIDIUM 168             
1 43924U 19002C   21125.31008764  .00000085  00000-0  23428-4 0  9990
2 43924  86.4002  54.6218 0002423  89.7203 270.4270 14.34216354121100
IRIDIUM 173             
1 43925U 19002D   21125.29740077  .00000090  00000-0  25085-4 0  9995
2 43925  86.3996  54.5919 0002309  89.5097 270.6364 14.34218530121082
IRIDIUM 169             
1 43926U 19002E   21125.63645979  .00000102  00000-0  26937-4 0  9990
2 43926  86.4209  86.0561 0006060  34.3780 325.7809 14.38603138121586
IRIDIUM 172             
1 43927U 19002F   21125.29105939  .00000099  00000-0  28421-4 0  9995
2 43927  86.3997  54.5967 0002380  91.4534 268.6934 14.34216770121090
IRIDIUM 175             
1 43928U 19002G   21125.31276734  .00000176  00000-0  23933-4 0  9990
2 43928  86.6116  54.4563 0001918  96.8374 263.3062 14.72252652124273
IRIDIUM 171             
1 43929U 19002H   21125.34179283  .00000083  00000-0  22640-4 0  9996
2 43929  86.4007  54.6743 0002438  88.9654 271.1821 14.34219362121090
IRIDIUM 170             
1 43930U 19002J   21125.32504321  .00000175  00000-0  23797-4 0  9997
2 43930  86.6133  54.6293 0002439  92.8783 267.2713 14.72247045124294
IRIDIUM 167             
1 43931U 19002K   21125.33545561  .00000085  00000-0  23275-4 0  9991
2 43931  86.3998  54.5842 0002639 100.3147 259.8347 14.34214663121094
